[{"OBJECT_NAME":"TIANQI-35","OBJECT_ID":"2024-245C","EPOCH":"2026-03-09T22:48:29.661984","MEAN_MOTION":13.99155463,"ECCENTRICITY":0.00115717,"INCLINATION":44.9856,"RA_OF_ASC_NODE":43.2512,"ARG_OF_PERICENTER":259.4757,"MEAN_ANOMALY":100.4772,"EPHEMERIS_TYPE":0,"CLASSIFICATION_TYPE":"U","NORAD_CAT_ID":62367,"ELEMENT_SET_NO":999,"REV_AT_EPOCH":6244,"BSTAR":0.00014384767,"MEAN_MOTION_DOT":8.1e-7,"MEAN_MOTION_DDOT":0},{"OBJECT_NAME":"THORAD AGENA D DEB","OBJECT_ID":"1970-025CK","EPOCH":"2026-03-09T22:54:28.869120","MEAN_MOTION":14.02907511,"ECCENTRICITY":0.00854848,"INCLINATION":100.07,"RA_OF_ASC_NODE":82.5815,"ARG_OF_PERICENTER":119.4384,"MEAN_ANOMALY":241.5343,"EPHEMERIS_TYPE":0,"CLASSIFICATION_TYPE":"U","NORAD_CAT_ID":4736,"ELEMENT_SET_NO":999,"REV_AT_EPOCH":83271,"BSTAR":0.00091629727,"MEAN_MOTION_DOT":1.415e-5,"MEAN_MOTION_DDOT":0}]
